IRIDIUM 64 [+]          
1 25287U 98021C   16192.43043453 -.00000056  00000-0 -27008-4 0  9993
2 25287  86.3949   6.8193 0001951  86.9636 273.1783 14.34213215956014
IRIDIUM 65 [+]          
1 25288U 98021D   16192.43677804 -.00000048  00000-0 -24134-4 0  9995
2 25288  86.3948   6.7262 0002181  82.4353 277.7091 14.34212810956037
IRIDIUM 66 [+]          
1 25289U 98021E   16192.52989414  .00000015  00000-0 -16472-5 0  9999
2 25289  86.3951   6.5933 0002283  89.1595 358.7260 14.34213383956045
IRIDIUM 67 [+]          
1 25290U 98021F   16192.51923504  .00000015  00000-0 -16549-5 0  9993
2 25290  86.3953   6.7292 0002219  90.0471 270.0979 14.34213380956053
IRIDIUM 68 [+]          
1 25291U 98021G   16192.45581154 -.00000041  00000-0 -21855-4 0  9993
2 25291  86.3950   6.8682 0002215  86.9531 273.1918 14.34213009956013
IRIDIUM 69 [-]          
1 25319U 98026A   16192.53049601  .00000097  00000-0  25212-4 0  9994
2 25319  86.3977  29.4543 0001776  33.0888 327.0421 14.38600352953918
IRIDIUM 71 [-]          
1 25320U 98026B   16192.54933801  .00000125  00000-0  34012-4 0  9991
2 25320  86.3960  25.5002 0003684  59.9525 300.2038 14.39013505954337
IRIDIUM 70 [+]          
1 25342U 98032A   16192.48509213  .00000015  00000-0 -16832-5 0  9991
2 25342  86.3958   7.0811 0002329  88.0198 292.3608 14.34213373950122
IRIDIUM 72 [+]          
1 25343U 98032B   16192.47419833  .00000015  00000-0 -15757-5 0  9994
2 25343  86.3952   6.7197 0002248  90.1480 299.4411 14.34213690950120
IRIDIUM 73 [-]          
1 25344U 98032C   16192.51549749  .00000157  00000-0  36160-4 0  9996
2 25344  86.4430 347.3252 0002865  99.8884 260.2643 14.48950901958071
IRIDIUM 74 [S]          
1 25345U 98032D   16192.48223203 -.00000022  00000-0 -12676-4 0  9996
2 25345  86.4460   7.0558 0001970  84.6548   0.0701 14.42946843953477
IRIDIUM 75 [+]          
1 25346U 98032E   16192.47871755  .00000015  00000-0 -16430-5 0  9991
2 25346  86.3956   6.9581 0002226  90.5481 289.6358 14.34213642950697
IRIDIUM 3 [+]           
1 25431U 98048A   16192.47375816  .00000001  00000-0 -68824-5 0  9999
2 25431  86.3946  38.5653 0002241  80.5450 354.7894 14.34218029936635
IRIDIUM 76 [+]          
1 25432U 98048B   16192.42182454  .00000004  00000-0 -56627-5 0  9990
2 25432  86.3944  38.3524 0002245  85.5214 343.6604 14.34217861936613
IRIDIUM 82 [+]          
1 25467U 98051A   16192.51721722  .00000030  00000-0  35692-5 0  9996
2 25467  86.3994 164.9858 0002120  81.7095 278.4342 14.34213768937649
IRIDIUM 81 [+]          
1 25468U 98051B   16192.51087516  .00000043  00000-0  83360-5 0  9992
2 25468  86.3980 164.6054 0002282  88.1173 272.0284 14.34214027933861
IRIDIUM 80 [+]          
1 25469U 98051C   16192.51036959  .00000007  00000-0 -44367-5 0  9993
2 25469  86.3987 164.8760 0002151  86.5085   9.0631 14.34216426933863
IRIDIUM 77 [+]          
1 25471U 98051E   16192.45827609  .00000013  00000-0 -22760-5 0  9999
2 25471  86.3977 164.5006 0002341  83.4583  70.5907 14.34216357939054
IRIDIUM 2 [-]           
1 25527U 98066A   16192.33560727  .00001749  00000-0  90776-4 0  9996
2 25527  85.5302 233.8264 0007068 264.9094  95.1339 15.15365354966086
IRIDIUM 86 [+]          
1 25528U 98066B   16192.52650752  .00000202  00000-0  65203-4 0  9996
2 25528  86.3979 132.6694 0002471  81.2330 278.9146 14.34217482930395
IRIDIUM 84 [+]          
1 25530U 98066D   16192.48845242  .00000210  00000-0  67877-4 0  9992
2 25530  86.3981 132.8444 0002259  85.7090 274.4364 14.34218099928027
IRIDIUM 83 [+]          
1 25531U 98066E   16192.52017113  .00000192  00000-0  61480-4 0  9999
2 25531  86.3984 132.9426 0002273  86.1649 273.9806 14.34221012925383
IRIDIUM 20 [+]          
1 25577U 98074A   16192.44015820 -.00000001  00000-0 -74148-5 0  9999
2 25577  86.3942  38.2707 0002146  82.3079 277.8360 14.34217829919451
IRIDIUM 11 [+]          
1 25578U 98074B   16192.46743700  .00000009  00000-0 -38004-5 0  9995
2 25578  86.3943  38.4642 0002129  84.3629 351.0883 14.34217896928423
IRIDIUM 14 [S]          
1 25777U 99032A   16192.49615003  .00000030  00000-0  36233-5 0  9993
2 25777  86.3955   6.7864 0002313  86.6684 285.0951 14.34213718905709
IRIDIUM 21 [+]          
1 25778U 99032B   16192.46212860 -.00000040  00000-0 -21463-4 0  9996
2 25778  86.3949   6.8241 0002146  89.5588 270.5853 14.34213338899139
IRIDIUM 91 [+]          
1 27372U 02005A   16192.51509317  .00000161  00000-0  50572-4 0  9999
2 27372  86.3969  70.6555 0002002  83.8407 350.7310 14.34218549762652
IRIDIUM 90 [S]          
1 27373U 02005B   16192.45091516  .00000037  00000-0  51168-5 0  9995
2 27373  86.4495 132.9426 0002528  84.8612 275.2877 14.42947363762076
IRIDIUM 94 [S]          
1 27374U 02005C   16192.48641909  .00000064  00000-0  15879-4 0  9994
2 27374  86.3945  38.5786 0003097  90.3935 344.8387 14.34219008766979
IRIDIUM 95 [+]          
1 27375U 02005D   16192.46894548  .00000153  00000-0  47449-4 0  9999
2 27375  86.3969  70.4569 0002303  86.4701 273.6758 14.34218715761932
IRIDIUM 96 [S]          
1 27376U 02005E   16192.51677250  .00000235  00000-0  76730-4 0  9991
2 27376  86.4006 101.9556 0002662 114.2178 245.9296 14.34217324767141
IRIDIUM 97 [+]          
1 27450U 02031A   16192.48504081  .00000189  00000-0  60431-4 0  9999
2 27450  86.3973 101.7701 0002048  84.4934 275.6496 14.34218994741252
IRIDIUM 98 [S]          
1 27451U 02031B   16192.49124008  .00000014  00000-0 -22021-5 0  9990
2 27451  86.3978 165.0584 0002122  84.1351  10.9600 14.34216744742320
